[{"OBJECT_NAME":"STARLINK-3054","OBJECT_ID":"2021-082AP","EPOCH":"2026-03-09T22:20:32.440992","MEAN_MOTION":14.98330582,"ECCENTRICITY":0.00026696,"INCLINATION":69.999,"RA_OF_ASC_NODE":293.8403,"ARG_OF_PERICENTER":269.1801,"MEAN_ANOMALY":90.9052,"EPHEMERIS_TYPE":0,"CLASSIFICATION_TYPE":"U","NORAD_CAT_ID":49167,"ELEMENT_SET_NO":999,"REV_AT_EPOCH":24721,"BSTAR":-2.0115793e-5,"MEAN_MOTION_DOT":-3.33e-6,"MEAN_MOTION_DDOT":0},{"OBJECT_NAME":"PSLV DEB","OBJECT_ID":"2001-049CM","EPOCH":"2026-03-09T17:27:22.548384","MEAN_MOTION":14.90404456,"ECCENTRICITY":0.00458218,"INCLINATION":98.0898,"RA_OF_ASC_NODE":119.3906,"ARG_OF_PERICENTER":199.2732,"MEAN_ANOMALY":281.2941,"EPHEMERIS_TYPE":0,"CLASSIFICATION_TYPE":"U","NORAD_CAT_ID":27141,"ELEMENT_SET_NO":999,"REV_AT_EPOCH":30717,"BSTAR":0.00021410628,"MEAN_MOTION_DOT":2.065e-5,"MEAN_MOTION_DDOT":0}]
